GLOBALSTAR M075         
1 37192U 10054E   24185.69901903 -.00000100  00000+0  21654-4 0  9992
2 37192  51.9923 162.6057 0000145  35.6713 135.4393 12.62261339631996
GLOBALSTAR M073         
1 37193U 10054F   24185.91697620 -.00000094  00000+0  53237-4 0  9990
2 37193  52.0067  75.4972 0000691  49.0406  31.6121 12.62266592633858
GLOBALSTAR M083         
1 37739U 11033A   24186.54960796 -.00000078  00000+0  14362-3 0  9998
2 37739  51.9875  22.7756 0000792  98.2602 280.4666 12.62261678603316
GLOBALSTAR M088         
1 37740U 11033B   24185.76254885 -.00000092  00000+0  63239-4 0  9992
2 37740  51.9741 290.9589 0000713 140.0571  20.3492 12.62264714598390
GLOBALSTAR M091         
1 37741U 11033C   24186.56364338 -.00000070  00000+0  18770-3 0  9992
2 37741  51.9986 251.4544 0000691 164.2593 336.7874 12.62264471599548
GLOBALSTAR M085         
1 37742U 11033D   24185.76488844 -.00000077  00000+0  15046-3 0  9993
2 37742  51.9838 205.2294 0000347 180.9407 350.1605 12.62263189599694
GLOBALSTAR M081         
1 37743U 11033E   24186.24648348 -.00000077  00000+0  15021-3 0  9998
2 37743  51.9927 206.3364 0000362 220.7557 218.9992 12.62266664600289
GLOBALSTAR M089         
1 37744U 11033F   24186.19251709 -.00000101  00000+0  17302-4 0  9997
2 37744  51.9905 160.7949 0000498 355.1014  17.8867 12.62265643600990
